{
  "type": "FeatureCollection",
  "features": [
    {
      "type": "Feature",
      "properties": {
        "norad_id": 36036,
        "name": "SMOS",
        "group": "resource",
        "lat": 77.15220158642387,
        "lon": 126.66670679039973,
        "alt_km": 751.2915607883533,
        "timestamp": "2025-12-08T03:50:06.661652+00:00",
        "meta_object_name": "SMOS",
        "meta_object_id": "2009-059A",
        "meta_epoch": "2025-12-07T05:46:49.980000",
        "meta_mean_motion": 14.39733927,
        "meta_eccentricity": 0.00011348,
        "meta_inclination": 98.4385,
        "meta_ra_of_asc_node": 166.3706,
        "meta_arg_of_pericenter": 84.9916,
        "meta_mean_anomaly": 275.1402,
        "meta_ephemeris_type": 0,
        "meta_classification_type": "U",
        "meta_norad_cat_id": 36036,
        "meta_element_set_no": 999,
        "meta_rev_at_epoch": 84583,
        "meta_bstar": 0.00024983742,
        "meta_mean_motion_dot": 7.39e-06,
        "meta_mean_motion_ddot": 0,
        "tle_line1": "1 36036U 09059A   25341.24085625  .00000739  00000+0  24984-3 0  9996",
        "tle_line2": "2 36036  98.4385 166.3706 0001134  84.9916 275.1402 14.39733927845839"
      },
      "geometry": {
        "type": "Point",
        "coordinates": [
          126.66670679039973,
          77.15220158642387
        ]
      }
    },
    {
      "type": "Feature",
      "properties": {
        "norad_id": 36110,
        "name": "YAOGAN-7",
        "group": "resource",
        "lat": 0.03587343369008095,
        "lon": -136.07236054749376,
        "alt_km": 632.0210961735984,
        "timestamp": "2025-12-08T03:50:06.661662+00:00",
        "meta_object_name": "YAOGAN-7",
        "meta_object_id": "2009-069A",
        "meta_epoch": "2025-12-07T03:27:30.417120",
        "meta_mean_motion": 14.77719456,
        "meta_eccentricity": 0.00235706,
        "meta_inclination": 98.0304,
        "meta_ra_of_asc_node": 222.9209,
        "meta_arg_of_pericenter": 300.3256,
        "meta_mean_anomaly": 59.5623,
        "meta_ephemeris_type": 0,
        "meta_classification_type": "U",
        "meta_norad_cat_id": 36110,
        "meta_element_set_no": 999,
        "meta_rev_at_epoch": 86126,
        "meta_bstar": 0.0001836924,
        "meta_mean_motion_dot": 1.269e-05,
        "meta_mean_motion_ddot": 0,
        "tle_line1": "1 36110U 09069A   25341.14410205  .00001269  00000+0  18369-3 0  9994",
        "tle_line2": "2 36110  98.0304 222.9209 0023570 300.3256  59.5623 14.77719456861263"
      },
      "geometry": {
        "type": "Point",
        "coordinates": [
          -136.07236054749376,
          0.03587343369008095
        ]
      }
    },
    {
      "type": "Feature",
      "properties": {
        "norad_id": 36605,
        "name": "TANDEM-X",
        "group": "resource",
        "lat": -74.34671763658167,
        "lon": 15.425634620817664,
        "alt_km": 517.1373903798221,
        "timestamp": "2025-12-08T03:50:06.661672+00:00",
        "meta_object_name": "TANDEM-X",
        "meta_object_id": "2010-030A",
        "meta_epoch": "2025-12-06T14:13:48.617184",
        "meta_mean_motion": 15.19146828,
        "meta_eccentricity": 0.00021111,
        "meta_inclination": 97.4449,
        "meta_ra_of_asc_node": 346.063,
        "meta_arg_of_pericenter": 96.3345,
        "meta_mean_anomaly": 263.813,
        "meta_ephemeris_type": 0,
        "meta_classification_type": "U",
        "meta_norad_cat_id": 36605,
        "meta_element_set_no": 999,
        "meta_rev_at_epoch": 85740,
        "meta_bstar": 0.00017045926,
        "meta_mean_motion_dot": 3.514e-05,
        "meta_mean_motion_ddot": 0,
        "tle_line1": "1 36605U 10030A   25340.59292381  .00003514  00000+0  17046-3 0  9990",
        "tle_line2": "2 36605  97.4449 346.0630 0002111  96.3345 263.8130 15.19146828857408"
      },
      "geometry": {
        "type": "Point",
        "coordinates": [
          15.425634620817664,
          -74.34671763658167
        ]
      }
    },
    {
      "type": "Feature",
      "properties": {
        "norad_id": 36795,
        "name": "CARTOSAT-2B",
        "group": "resource",
        "lat": -82.20140844188984,
        "lon": 118.82400156215004,
        "alt_km": 649.5905811774373,
        "timestamp": "2025-12-08T03:50:06.661682+00:00",
        "meta_object_name": "CARTOSAT-2B",
        "meta_object_id": "2010-035A",
        "meta_epoch": "2025-12-07T07:07:46.099776",
        "meta_mean_motion": 14.78777105,
        "meta_eccentricity": 0.00129075,
        "meta_inclination": 97.786,
        "meta_ra_of_asc_node": 30.5042,
        "meta_arg_of_pericenter": 93.6726,
        "meta_mean_anomaly": 266.5962,
        "meta_ephemeris_type": 0,
        "meta_classification_type": "U",
        "meta_norad_cat_id": 36795,
        "meta_element_set_no": 999,
        "meta_rev_at_epoch": 83149,
        "meta_bstar": 0.00020504491,
        "meta_mean_motion_dot": 1.459e-05,
        "meta_mean_motion_ddot": 0,
        "tle_line1": "1 36795U 10035A   25341.29706134  .00001459  00000+0  20504-3 0  9998",
        "tle_line2": "2 36795  97.7860  30.5042 0012907  93.6726 266.5962 14.78777105831493"
      },
      "geometry": {
        "type": "Point",
        "coordinates": [
          118.82400156215004,
          -82.20140844188984
        ]
      }
    },
    {
      "type": "Feature",
      "properties": {
        "norad_id": 36834,
        "name": "YAOGAN-10",
        "group": "resource",
        "lat": -72.68109812705308,
        "lon": 155.52049841797597,
        "alt_km": 623.2496578164273,
        "timestamp": "2025-12-08T03:50:06.661692+00:00",
        "meta_object_name": "YAOGAN-10",
        "meta_object_id": "2010-038A",
        "meta_epoch": "2025-12-07T07:49:35.502240",
        "meta_mean_motion": 14.84576739,
        "meta_eccentricity": 0.00015069,
        "meta_inclination": 97.9142,
        "meta_ra_of_asc_node": 1.1872,
        "meta_arg_of_pericenter": 85.0677,
        "meta_mean_anomaly": 36.5004,
        "meta_ephemeris_type": 0,
        "meta_classification_type": "U",
        "meta_norad_cat_id": 36834,
        "meta_element_set_no": 999,
        "meta_rev_at_epoch": 82873,
        "meta_bstar": 0.00038137364,
        "meta_mean_motion_dot": 3.166e-05,
        "meta_mean_motion_ddot": 0,
        "tle_line1": "1 36834U 10038A   25341.32610535  .00003166  00000+0  38137-3 0  9996",
        "tle_line2": "2 36834  97.9142   1.1872 0001506  85.0677  36.5004 14.84576739828732"
      },
      "geometry": {
        "type": "Point",
        "coordinates": [
          155.52049841797597,
          -72.68109812705308
        ]
      }
    },
    {
      "type": "Feature",
      "properties": {
        "norad_id": 37216,
        "name": "COSMO-SKYMED 4",
        "group": "resource",
        "lat": -37.38954405076116,
        "lon": -22.525238442537727,
        "alt_km": 629.627389794543,
        "timestamp": "2025-12-08T03:50:06.661702+00:00",
        "meta_object_name": "COSMO-SKYMED 4",
        "meta_object_id": "2010-060A",
        "meta_epoch": "2025-12-07T07:24:46.949472",
        "meta_mean_motion": 14.8215862,
        "meta_eccentricity": 0.00013629,
        "meta_inclination": 97.8813,
        "meta_ra_of_asc_node": 162.7141,
        "meta_arg_of_pericenter": 82.955,
        "meta_mean_anomaly": 277.1818,
        "meta_ephemeris_type": 0,
        "meta_classification_type": "U",
        "meta_norad_cat_id": 37216,
        "meta_element_set_no": 999,
        "meta_rev_at_epoch": 81614,
        "meta_bstar": 0.00014436387,
        "meta_mean_motion_dot": 1.097e-05,
        "meta_mean_motion_ddot": 0,
        "tle_line1": "1 37216U 10060A   25341.30887673  .00001097  00000+0  14436-3 0  9990",
        "tle_line2": "2 37216  97.8813 162.7141 0001362  82.9550 277.1818 14.82158620816141"
      },
      "geometry": {
        "type": "Point",
        "coordinates": [
          -22.525238442537727,
          -37.38954405076116
        ]
      }
    },
    {
      "type": "Feature",
      "properties": {
        "norad_id": 37387,
        "name": "RESOURCESAT-2",
        "group": "resource",
        "lat": 76.98852187454813,
        "lon": -92.24218686732293,
        "alt_km": 809.3224241658445,
        "timestamp": "2025-12-08T03:50:06.661712+00:00",
        "meta_object_name": "RESOURCESAT-2",
        "meta_object_id": "2011-015A",
        "meta_epoch": "2025-12-07T07:05:54.750048",
        "meta_mean_motion": 14.21594027,
        "meta_eccentricity": 0.00066598,
        "meta_inclination": 98.7884,
        "meta_ra_of_asc_node": 44.8719,
        "meta_arg_of_pericenter": 56.6946,
        "meta_mean_anomaly": 303.4868,
        "meta_ephemeris_type": 0,
        "meta_classification_type": "U",
        "meta_norad_cat_id": 37387,
        "meta_element_set_no": 999,
        "meta_rev_at_epoch": 75891,
        "meta_bstar": 0.00016284407,
        "meta_mean_motion_dot": 3.13e-06,
        "meta_mean_motion_ddot": 0,
        "tle_line1": "1 37387U 11015A   25341.29577257  .00000313  00000+0  16284-3 0  9995",
        "tle_line2": "2 37387  98.7884  44.8719 0006659  56.6946 303.4868 14.21594027758916"
      },
      "geometry": {
        "type": "Point",
        "coordinates": [
          -92.24218686732293,
          76.98852187454813
        ]
      }
    }
  ]
}